{"fetched_at":"2026-04-01T16:59:04Z","count":11445,"tles":[{"name":"STARLINK-3713","line1":"1 52091U 22029D   23362.45447945  .00005894  00000+0  38782-3 0  9996","line2":"2 52091  53.2166  90.4926 0001611  99.6831 260.4343 15.08864905 99542","category":"Starlink"},{"name":"CZ-3B DEB","line1":"1 40193U 11077S   26088.06021978 -.00000254  00000+0  14811-2 0  9998","line2":"2 40193  26.3136  51.4057 7421067 302.5689   6.6717  1.86810321 74662","category":"Other"},{"name":"STARLINK-32092","line1":"1 59700U 24086U   26090.61175867  .00001845  00000+0  76590-4 0  9997","line2":"2 59700  43.0032 296.1932 0001147 275.8400  84.2321 15.27567600107463","category":"Starlink"},{"name":"2025-226B","line1":"1 65939U 25226B   26091.22828788  .00004912  00000+0  30549-3 0  9991","line2":"2 65939  97.6422 170.0461 0019633  42.8318 317.4437 15.09941933 25966","category":"Other"},{"name":"STARLINK-32772","line1":"1 63033U 25034E   26090.87356625  .00007104  00000+0  25199-3 0  9998","line2":"2 63033  53.1579 155.0576 0001039  58.4200 301.6902 15.30166950 62485","category":"Starlink"},{"name":"UNKNOWN","line1":"1 81899U          26090.30202569  .00002198  00000+0  51596-2 0  9996","line2":"2 81899 102.4124 216.6779 0169326 343.5210  16.0436 13.20562268593310","category":"Other"},{"name":"2023-117F","line1":"1 57585U 23117F   26091.19019742  .00029850  00000+0  69872-3 0  9993","line2":"2 57585  97.4207 175.7498 0007739 137.7681 222.4163 15.42048699146976","category":"Other"},{"name":"STARLINK-33951","line1":"1 63803U 25091AD  26090.58566661  .00025882  00000+0  94645-3 0  9992","line2":"2 63803  42.9970 288.6259 0000851 276.9253  83.1501 15.27590772 52304","category":"Starlink"},{"name":"BEIDOU-3 M15 (C34)","line1":"1 43648U 18078B   26090.82856110 -.00000057  00000+0  00000+0 0  9998","line2":"2 43648  54.1555 302.6980 0005455  45.2736 314.8012  1.86232099 50730","category":"GPS"},{"name":"STARLINK-5414","line1":"1 54809U 22175BD  26090.93173741  .00000473  00000+0  47807-4 0  9998","line2":"2 54809  53.2174 288.8271 0001446  92.7834 267.3324 15.08841560183494","category":"Starlink"},{"name":"COSMOS 2251 DEB","line1":"1 33791U 93036AG  26091.06347653  .00003050  00000+0  89878-3 0  9996","line2":"2 33791  74.1751 196.1455 0029340 356.7873 176.5820 14.43781015896295","category":"Other"},{"name":"ONEWEB-0270","line1":"1 48988U 21060X   26091.12259747  .00000029  00000+0  42116-4 0  9999","line2":"2 48988  87.9037 244.0984 0002116  94.3615 265.7757 13.16595695229521","category":"Other"},{"name":"HULIANWANG JISHU SHIYAN*","line1":"1 58692U 23212B   26090.81558972 -.00000081  00000+0  83655-4 0  9992","line2":"2 58692  49.9965 267.5822 0000725 208.6656 151.4181 13.41453388110860","category":"Other"},{"name":"2025-155L","line1":"1 64886U 25155L   26090.89498823  .00042152  00000+0  11613-2 0  9995","line2":"2 64886  97.4418  60.5317 0010036  83.7897 276.4490 15.36968380 69041","category":"Other"},{"name":"FENGYUN 1C DEB","line1":"1 30191U 99025UY  26090.72860384  .00006401  00000+0  79540-3 0  9992","line2":"2 30191  98.7609 176.7064 0092954 278.4133 233.7261 14.79937319 18863","category":"Weather"},{"name":"STARLINK-1613","line1":"1 46165U 20057BA  23361.87570431  .00039193  00000+0  79830-3 0  9990","line2":"2 46165  53.0556 233.1061 0005630 142.3416 217.7985 15.45876226186964","category":"Starlink"},{"name":"O3B MPOWER F4","line1":"1 56367U 23059A   26089.81731710 -.00000029  00000+0  00000+0 0  9999","line2":"2 56367   0.0638   4.9210 0006972  18.6810 336.4259  5.00116070 54685","category":"Other"},{"name":"INTELSAT 33E DEB","line1":"1 61989U 16053F   26090.54086037 -.00000084  00000+0  00000+0 0  9999","line2":"2 61989   2.3436 113.1406 0222840 152.7421 209.1542  0.98042912  5080","category":"Other"},{"name":"STARLINK-36712","line1":"1 67700U 26025H   26091.16671296  .00120725  00000+0  36953-2 0  9995","line2":"2 67700  97.2850 203.5206 0001694  75.2695  22.2228 15.33333929  5931","category":"Starlink"},{"name":"COSMOS 2251 DEB","line1":"1 36533U 93036BCT 26089.75132176  .00001656  00000+0  42683-3 0  9991","line2":"2 36533  74.0091 271.6795 0047499  33.8294 326.5880 14.50203977860501","category":"Other"},{"name":"HAWK-4C","line1":"1 52170U 22033P   23362.20597808  .00012960  00000+0  40865-3 0  9993","line2":"2 52170  97.3426  80.7121 0009482 181.8558 178.2651 15.32967153 96913","category":"Other"},{"name":"STARLINK-11111 [DTC]","line1":"1 59764U 24091M   26090.30900675  .00000483  00000+0  88494-5 0  9996","line2":"2 59764  53.1595  99.3365 0001165  86.5393 273.5758 15.69692061108914","category":"Starlink"},{"name":"HULIANWANG DIGUI-95","line1":"1 66003U 25231J   26091.19844653 -.00000072  00000+0  11132-3 0  9996","line2":"2 66003  50.0021  91.5246 0000795 301.1407  58.9387 13.29328108 22651","category":"Other"},{"name":"STARLINK-32923","line1":"1 63097U 25037W   26090.57436703  .00002973  00000+0  25682-3 0  9990","line2":"2 63097  70.0004 299.1362 0002597 266.6292  93.4570 14.98334024 61885","category":"Starlink"},{"name":"UNKNOWN","line1":"1 82739U          26087.39801659  .00000544  00000+0  48075-3 0  9992","line2":"2 82739  99.0963 245.1720 0170028  10.7511  18.7511 13.82995564620712","category":"Other"},{"name":"STARLINK-30275","line1":"1 57667U 23124E   26090.45420311  .00002038  00000+0  80902-4 0  9995","line2":"2 57667  53.1597 105.9778 0001361  83.0361 277.0795 15.30200437146892","category":"Starlink"},{"name":"STARLINK-33979","line1":"1 63867U 25094D   26090.66668981  .00043695  00000+0  36494-2 0  9991","line2":"2 63867  70.0022 179.0955 0003501 270.3487 100.0542 14.98303916  5730","category":"Starlink"},{"name":"GPS BIIA-26 (PRN 10)","line1":"1 23953C 96041A   08002.69761574  .00000000  00000-0  00000-0 0 43636","line2":"2 23953  55.3426 300.9069 0077931  27.6834 250.4396  2.00554857    19","category":"GPS"},{"name":"LEMUR-2-PHILARI","line1":"1 55013U 23001E   23362.16377249  .00017023  00000+0  54522-3 0  9998","line2":"2 55013  97.4505  61.3101 0007474  56.5063 303.6892 15.32423265 54648","category":"Other"},{"name":"PICO-02I029","line1":"1 60568U 24149DE  26032.89200780  .12298703  26266-5  29717-2 0  9999","line2":"2 60568  97.6523 130.3814 0012899 302.1460  57.8580 16.29224409 81050","category":"Other"},{"name":"FLOCK 4H-6","line1":"1 66709U 25276AV  26091.18298949  .00006666  00000+0  31840-3 0  9990","line2":"2 66709  97.4270 166.1629 0002251 215.8534 144.2550 15.19361554 18738","category":"Other"},{"name":"COSMOS 2251 DEB","line1":"1 33899U 93036DC  26090.84898677  .00005406  00000+0  10547-2 0  9990","line2":"2 33899  74.0522 237.1527 0057558 270.9751 240.4367 14.62152832904331","category":"Other"},{"name":"ONEWEB-0301","line1":"1 49090U 21075R   26091.16491582 -.00000306  00000+0 -88527-3 0  9994","line2":"2 49090  87.9017   5.9480 0001756  90.4313 269.7016 13.12441819224464","category":"Other"},{"name":"KZ-1A R/B","line1":"1 58757U 24008B   24014.80683557  .62863689  15676-5  30693-3 0  9991","line2":"2 58757  95.1254  88.1520 0029281 312.7073 144.6946 16.54352654   598","category":"Other"},{"name":"STARLINK-34586","line1":"1 64950U 25158U   26090.88473892  .00004834  00000+0  33898-3 0  9993","line2":"2 64950  97.6039 315.9338 0001968  78.1846 281.9602 15.05652787 38690","category":"Starlink"},{"name":"FENGYUN 1C DEB","line1":"1 30279U 99025YQ  26090.65213256  .00001803  00000+0  63578-3 0  9996","line2":"2 30279  99.1609  34.8214 0218361 120.9444   2.9904 14.23606213991601","category":"Weather"},{"name":"STARLINK-1686","line1":"1 46328U 20062D   26091.25002314  .00157803  00000+0  94095-3 0  9991","line2":"2 46328  53.0407 202.3348 0010519 355.6363  74.0091 15.76881471  5973","category":"Starlink"},{"name":"STARLINK-32408","line1":"1 62054U 24216Y   26090.45137475  .00027276  00000+0  99667-3 0  9998","line2":"2 62054  43.0001 133.4352 0001557 278.9230  81.1445 15.27592671 77212","category":"Starlink"},{"name":"KUIPER-00198","line1":"1 67770U 26030G   26091.06700752  .00038093  00000+0  10474-2 0  9993","line2":"2 67770  51.8774 111.0642 0004037 102.9174 257.2263 15.36822749  8534","category":"Other"},{"name":"FENGYUN 1C DEB","line1":"1 36734U 99025EBG 26090.12179528  .00003774  00000+0  15688-2 0  9990","line2":"2 36734  99.0446 145.6209 0033433 265.9778  93.7579 14.26740789842792","category":"Weather"},{"name":"STARLINK-3777","line1":"1 52294U 22041AK  26091.13511538  .00004270  00000+0  28611-3 0  9999","line2":"2 52294  53.2180 358.3591 0001327  81.0179 279.0964 15.08850187217893","category":"Starlink"},{"name":"STARLINK-31895","line1":"1 59849U 24097Q   26090.56445085  .00001151  00000+0  51358-4 0  9994","line2":"2 59849  43.0010 150.7037 0000898 231.5969 128.4802 15.27576083105261","category":"Starlink"},{"name":"STARLINK-35401","line1":"1 66067U 25235K   26090.85300803  .00030229  00000+0  10286-2 0  9990","line2":"2 66067  53.1581 142.4017 0001500  80.4040 279.7130 15.30200130 26283","category":"Starlink"},{"name":"QIANFAN-77","line1":"1 63163U 25046E   26090.83964870  .00000112  00000+0  71579-4 0  9994","line2":"2 63163  88.9712 305.9568 0016883  98.4453 261.8638 13.96184760 63672","category":"Other"},{"name":"UNKNOWN","line1":"1 85220U          23360.67785156  .00052766  00000+0  96678-2 0  9999","line2":"2 85220  99.4019 258.2093 0122214 243.0900 115.7766 14.60785055528548","category":"Other"},{"name":"STARLINK-30362","line1":"1 57745U 23131P   26090.93353241  .00056975  00000+0  20859-2 0  9992","line2":"2 57745  43.0056  47.2313 0002994 295.9703  64.0840 15.27231173143313","category":"Starlink"},{"name":"STARLINK-33994","line1":"1 63931U 25098F   26090.79892667  .00006931  00000+0  58798-3 0  9995","line2":"2 63931  70.0015 218.7320 0002860 268.8164  91.2668 14.98339461 49880","category":"Starlink"},{"name":"KUPON","line1":"1 25045U 97070A   26089.20953644 -.00000278  00000+0  00000+0 0  9993","line2":"2 25045  14.5585 355.2352 0005546 311.1892  48.7419  1.00279828103853","category":"Other"}]}